[{"OBJECT_NAME":"FENGYUN 3C","OBJECT_ID":"2013-052A","EPOCH":"2026-03-09T23:00:17.582976","MEAN_MOTION":14.15729116,"ECCENTRICITY":0.00138136,"INCLINATION":98.4893,"RA_OF_ASC_NODE":47.4396,"ARG_OF_PERICENTER":312.3692,"MEAN_ANOMALY":47.6312,"EPHEMERIS_TYPE":0,"CLASSIFICATION_TYPE":"U","NORAD_CAT_ID":39260,"ELEMENT_SET_NO":999,"REV_AT_EPOCH":64452,"BSTAR":0.00010509622,"MEAN_MOTION_DOT":1.65e-6,"MEAN_MOTION_DDOT":0},{"OBJECT_NAME":"CZ-6A DEB","OBJECT_ID":"2024-140KU","EPOCH":"2026-03-09T14:57:02.233728","MEAN_MOTION":14.22985656,"ECCENTRICITY":0.0038422,"INCLINATION":88.9988,"RA_OF_ASC_NODE":285.8976,"ARG_OF_PERICENTER":150.3701,"MEAN_ANOMALY":209.9679,"EPHEMERIS_TYPE":0,"CLASSIFICATION_TYPE":"U","NORAD_CAT_ID":60889,"ELEMENT_SET_NO":999,"REV_AT_EPOCH":7936,"BSTAR":0.00060603,"MEAN_MOTION_DOT":1.388e-5,"MEAN_MOTION_DDOT":0}]
